{"type": "FeatureCollection", "features": [ {"type": "Feature", "properties": {"norad_id": 58662, "name": "TIANMU-1 21", "group": "weather", "lat": -45.48048237563958, "lon": 119.55129767049691, "alt_km": 478.2113963532647, "timestamp": "2025-12-24T11:32:59.646076+00:00", "meta": {"OBJECT_NAME": "TIANMU-1 21", "OBJECT_ID": "2023-208C", "EPOCH": "2025-12-24T05:28:45.127776", "MEAN_MOTION": 15.31790154, "ECCENTRICITY": 0.0006411, "INCLINATION": 97.4378, "RA_OF_ASC_NODE": 111.6631, "ARG_OF_PERICENTER": 212.4942, "MEAN_ANOMALY": 147.5905, "EPHEMERIS_TYPE": 0, "CLASSIFICATION_TYPE": "U", "NORAD_CAT_ID": 58662, "ELEMENT_SET_NO": 999, "REV_AT_EPOCH": 11075, "BSTAR": 0.00039173, "MEAN_MOTION_DOT": 0.00011958, "MEAN_MOTION_DDOT": 0}, "tle": {"line1": "1 58662U 23208C   25358.22830009  .00011958  00000+0  39173-3 0  9998", "line2": "2 58662  97.4378 111.6631 0006411 212.4942 147.5905 15.31790154110753"}}, "geometry": {"type": "Point", "coordinates": [119.55129767049691, -45.48048237563958]}}, {"type": "Feature", "properties": {"norad_id": 58663, "name": "TIANMU-1 22", "group": "weather", "lat": 67.38812762516257, "lon": 91.26823681143973, "alt_km": 477.73079851444527, "timestamp": "2025-12-24T11:32:59.646094+00:00", "meta": {"OBJECT_NAME": "TIANMU-1 22", "OBJECT_ID": "2023-208D", "EPOCH": "2025-12-24T03:23:27.972672", "MEAN_MOTION": 15.27789955, "ECCENTRICITY": 0.0002925, "INCLINATION": 97.4386, "RA_OF_ASC_NODE": 109.211, "ARG_OF_PERICENTER": 228.2004, "MEAN_ANOMALY": 131.8986, "EPHEMERIS_TYPE": 0, "CLASSIFICATION_TYPE": "U", "NORAD_CAT_ID": 58663, "ELEMENT_SET_NO": 999, "REV_AT_EPOCH": 11057, "BSTAR": 0.00034854, "MEAN_MOTION_DOT": 9.389e-05, "MEAN_MOTION_DDOT": 0}, "tle": {"line1": "1 58663U 23208D   25358.14129598  .00009389  00000+0  34854-3 0  9990", "line2": "2 58663  97.4386 109.2110 0002925 228.2004 131.8986 15.27789955110575"}}, "geometry": {"type": "Point", "coordinates": [91.26823681143973, 67.38812762516257]}}, {"type": "Feature", "properties": {"norad_id": 58700, "name": "TIANMU-1 15", "group": "weather", "lat": 61.56032757691493, "lon": 165.90012920090254, "alt_km": 490.30626557363667, "timestamp": "2025-12-24T11:32:59.646104+00:00", "meta": {"OBJECT_NAME": "TIANMU-1 15", "OBJECT_ID": "2024-004A", "EPOCH": "2025-12-24T04:58:32.143872", "MEAN_MOTION": 15.24552763, "ECCENTRICITY": 0.0006039, "INCLINATION": 97.4627, "RA_OF_ASC_NODE": 179.6337, "ARG_OF_PERICENTER": 241.2289, "MEAN_ANOMALY": 118.8342, "EPHEMERIS_TYPE": 0, "CLASSIFICATION_TYPE": "U", "NORAD_CAT_ID": 58700, "ELEMENT_SET_NO": 999, "REV_AT_EPOCH": 10909, "BSTAR": 0.00028622, "MEAN_MOTION_DOT": 6.979e-05, "MEAN_MOTION_DDOT": 0}, "tle": {"line1": "1 58700U 24004A   25358.20731648  .00006979  00000+0  28622-3 0  9997", "line2": "2 58700  97.4627 179.6337 0006039 241.2289 118.8342 15.24552763109095"}}, "geometry": {"type": "Point", "coordinates": [165.90012920090254, 61.56032757691493]}}, {"type": "Feature", "properties": {"norad_id": 58701, "name": "TIANMU-1 16", "group": "weather", "lat": 34.434604314106274, "lon": 4.437945327470016, "alt_km": 490.27643966740834, "timestamp": "2025-12-24T11:32:59.646116+00:00", "meta": {"OBJECT_NAME": "TIANMU-1 16", "OBJECT_ID": "2024-004B", "EPOCH": "2025-12-24T04:36:50.918400", "MEAN_MOTION": 15.24581104, "ECCENTRICITY": 0.0004385, "INCLINATION": 97.4567, "RA_OF_ASC_NODE": 178.9984, "ARG_OF_PERICENTER": 243.8926, "MEAN_ANOMALY": 116.186, "EPHEMERIS_TYPE": 0, "CLASSIFICATION_TYPE": "U", "NORAD_CAT_ID": 58701, "ELEMENT_SET_NO": 999, "REV_AT_EPOCH": 10909, "BSTAR": 0.00032664, "MEAN_MOTION_DOT": 7.981e-05, "MEAN_MOTION_DDOT": 0}, "tle": {"line1": "1 58701U 24004B   25358.19225600  .00007981  00000+0  32664-3 0  9997", "line2": "2 58701  97.4567 178.9984 0004385 243.8926 116.1860 15.24581104109094"}}, "geometry": {"type": "Point", "coordinates": [4.437945327470016, 34.434604314106274]}}, {"type": "Feature", "properties": {"norad_id": 58702, "name": "TIANMU-1 17", "group": "weather", "lat": -50.99588642081561, "lon": -9.608892051289212, "alt_km": 496.4851741264911, "timestamp": "2025-12-24T11:32:59.646127+00:00", "meta": {"OBJECT_NAME": "TIANMU-1 17", "OBJECT_ID": "2024-004C", "EPOCH": "2025-12-24T04:14:11.670144", "MEAN_MOTION": 15.24624686, "ECCENTRICITY": 0.0003558, "INCLINATION": 97.4601, "RA_OF_ASC_NODE": 179.3986, "ARG_OF_PERICENTER": 244.6124, "MEAN_ANOMALY": 115.4746, "EPHEMERIS_TYPE": 0, "CLASSIFICATION_TYPE": "U", "NORAD_CAT_ID": 58702, "ELEMENT_SET_NO": 999, "REV_AT_EPOCH": 10908, "BSTAR": 0.00031291, "MEAN_MOTION_DOT": 7.651e-05, "MEAN_MOTION_DDOT": 0}, "tle": {"line1": "1 58702U 24004C   25358.17652396  .00007651  00000+0  31291-3 0  9991", "line2": "2 58702  97.4601 179.3986 0003558 244.6124 115.4746 15.24624686109088"}}, "geometry": {"type": "Point", "coordinates": [-9.608892051289212, -50.99588642081561]}}, {"type": "Feature", "properties": {"norad_id": 58703, "name": "TIANMU-1 18", "group": "weather", "lat": -37.26746558564796, "lon": -174.37665983482796, "alt_km": 498.1175358546079, "timestamp": "2025-12-24T11:32:59.646138+00:00", "meta": {"OBJECT_NAME": "TIANMU-1 18", "OBJECT_ID": "2024-004D", "EPOCH": "2025-12-24T05:24:50.307264", "MEAN_MOTION": 15.24608373, "ECCENTRICITY": 0.0002932, "INCLINATION": 97.4618, "RA_OF_ASC_NODE": 179.6452, "ARG_OF_PERICENTER": 241.5125, "MEAN_ANOMALY": 118.5817, "EPHEMERIS_TYPE": 0, "CLASSIFICATION_TYPE": "U", "NORAD_CAT_ID": 58703, "ELEMENT_SET_NO": 999, "REV_AT_EPOCH": 10909, "BSTAR": 0.00028623, "MEAN_MOTION_DOT": 6.989e-05, "MEAN_MOTION_DDOT": 0}, "tle": {"line1": "1 58703U 24004D   25358.22558226  .00006989  00000+0  28623-3 0  9993", "line2": "2 58703  97.4618 179.6452 0002932 241.5125 118.5817 15.24608373109099"}}, "geometry": {"type": "Point", "coordinates": [-174.37665983482796, -37.26746558564796]}}, {"type": "Feature", "properties": {"norad_id": 58990, "name": "INSAT-3DS", "group": "weather", "lat": -0.059978963405874816, "lon": -11.380064457292953, "alt_km": 35784.749984247836, "timestamp": "2025-12-24T11:32:59.646149+00:00", "meta": {"OBJECT_NAME": "INSAT-3DS", "OBJECT_ID": "2024-033A", "EPOCH": "2025-12-23T23:47:43.165248", "MEAN_MOTION": 1.00271469, "ECCENTRICITY": 0.0001201, "INCLINATION": 0.0583, "RA_OF_ASC_NODE": 100.0979, "ARG_OF_PERICENTER": 175.0644, "MEAN_ANOMALY": 256.6499, "EPHEMERIS_TYPE": 0, "CLASSIFICATION_TYPE": "U", "NORAD_CAT_ID": 58990, "ELEMENT_SET_NO": 999, "REV_AT_EPOCH": 4531, "BSTAR": 0, "MEAN_MOTION_DOT": -1.35e-06, "MEAN_MOTION_DDOT": 0}, "tle": {"line1": "1 58990U 24033A   25357.99147182 -.00000135  00000+0  00000+0 0  9994", "line2": "2 58990   0.0583 100.0979 0001201 175.0644 256.6499  1.00271469 45310"}}, "geometry": {"type": "Point", "coordinates": [-11.380064457292953, -0.059978963405874816]}}, {"type": "Feature", "properties": {"norad_id": 59051, "name": "METEOR-M2 4", "group": "weather", "lat": 32.27819287826324, "lon": 140.74289563398528, "alt_km": 819.9130929890725, "timestamp": "2025-12-24T11:32:59.646160+00:00", "meta": {"OBJECT_NAME": "METEOR-M2 4", "OBJECT_ID": "2024-039A", "EPOCH": "2025-12-24T04:06:24.952896", "MEAN_MOTION": 14.22402937, "ECCENTRICITY": 0.0006438, "INCLINATION": 98.6783, "RA_OF_ASC_NODE": 314.9016, "ARG_OF_PERICENTER": 324.3134, "MEAN_ANOMALY": 35.7612, "EPHEMERIS_TYPE": 0, "CLASSIFICATION_TYPE": "U", "NORAD_CAT_ID": 59051, "ELEMENT_SET_NO": 999, "REV_AT_EPOCH": 9438, "BSTAR": 3.708e-05, "MEAN_MOTION_DOT": 3.9e-07, "MEAN_MOTION_DDOT": 0}, "tle": {"line1": "1 59051U 24039A   25358.17112214  .00000039  00000+0  37080-4 0  9993", "line2": "2 59051  98.6783 314.9016 0006438 324.3134  35.7612 14.22402937 94380"}}, "geometry": {"type": "Point", "coordinates": [140.74289563398528, 32.27819287826324]}}, {"type": "Feature", "properties": {"norad_id": 60133, "name": "GOES 19", "group": "weather", "lat": 9.247799678599069e-05, "lon": -168.69426086463534, "alt_km": 35789.05069551944, "timestamp": "2025-12-24T11:32:59.646218+00:00", "meta": {"OBJECT_NAME": "GOES 19", "OBJECT_ID": "2024-119A", "EPOCH": "2025-12-24T04:16:28.136352", "MEAN_MOTION": 1.00271525, "ECCENTRICITY": 0.0001016, "INCLINATION": 0.0187, "RA_OF_ASC_NODE": 177.9616, "ARG_OF_PERICENTER": 145.6091, "MEAN_ANOMALY": 118.3204, "EPHEMERIS_TYPE": 0, "CLASSIFICATION_TYPE": "U", "NORAD_CAT_ID": 60133, "ELEMENT_SET_NO": 999, "REV_AT_EPOCH": 520, "BSTAR": 0, "MEAN_MOTION_DOT": -2.27e-06, "MEAN_MOTION_DDOT": 0}, "tle": {"line1": "1 60133U 24119A   25358.17810343 -.00000227  00000+0  00000+0 0  9990", "line2": "2 60133   0.0187 177.9616 0001016 145.6091 118.3204  1.00271525  5201"}}, "geometry": {"type": "Point", "coordinates": [-168.69426086463534, 9.247799678599069e-05]}}, {"type": "Feature", "properties": {"norad_id": 65815, "name": "FENGYUN 3H", "group": "weather", "lat": -76.25238137541555, "lon": -23.65118858956059, "alt_km": 833.5589642543118, "timestamp": "2025-12-24T11:32:59.646235+00:00", "meta": {"OBJECT_NAME": "FENGYUN 3H", "OBJECT_ID": "2025-219A", "EPOCH": "2025-12-24T03:28:00.600096", "MEAN_MOTION": 14.19907578, "ECCENTRICITY": 8.2e-05, "INCLINATION": 98.6601, "RA_OF_ASC_NODE": 297.4879, "ARG_OF_PERICENTER": 107.9361, "MEAN_ANOMALY": 252.1905, "EPHEMERIS_TYPE": 0, "CLASSIFICATION_TYPE": "U", "NORAD_CAT_ID": 65815, "ELEMENT_SET_NO": 999, "REV_AT_EPOCH": 1254, "BSTAR": 6.6029e-05, "MEAN_MOTION_DOT": 9.7e-07, "MEAN_MOTION_DDOT": 0}, "tle": {"line1": "1 65815U 25219A   25358.14445139  .00000097  00000+0  66029-4 0  9990", "line2": "2 65815  98.6601 297.4879 0000820 107.9361 252.1905 14.19907578 12547"}}, "geometry": {"type": "Point", "coordinates": [-23.65118858956059, -76.25238137541555]}}]}